{"JAX":{"airportname":"Jacksonville International Airport","stateName":"Florida","lon":"-81.68786109","state":"FL","areacode":["904"],"majorCity":"Jacksonville","lat":"30.49405541"},"CLL":{"airportname":"Easterwood Airport","stateName":"Texas","lon":"-96.36383325","state":"TX","areacode":["979"],"majorCity":"College Station","lat":"30.58858316"},"STC":{"airportname":"St. Cloud Regional Airport","stateName":"Minnesota","lon":"-94.05987784","state":"MN","areacode":["320"],"majorCity":"Saint Cloud","lat":"45.54655574"},"CLT":{"airportname":"Charlotte/Douglas International Airport","stateName":"North Carolina","lon":"-80.94312519","state":"NC","areacode":["980","704"],"majorCity":"Charlotte","lat":"35.21401104"},"STL":{"airportname":"St Louis, Lambert International Airport","stateName":"Missouri","lon":"-90.35998866","state":"MO","areacode":["636","618","314"],"majorCity":"St Louis","lat":"38.7476863"},"XNA":{"airportname":"Northwest Arkansas Regional Airport","stateName":"Arkansas","lon":"-94.30681095","state":"AR","areacode":["479"],"majorCity":"Springdale","lat":"36.28186952"},"SLC":{"airportname":"Salt Lake City International Airport","stateName":"Utah","lon":"-111.9777721","state":"UT","areacode":["801","435","385"],"majorCity":"Salt Lake City","lat":"40.78838904"},"LNS":{"airportname":"Lancaster Airport","stateName":"Pennsylvania","lon":"-76.29609749","state":"PA","areacode":["717"],"majorCity":"Lancaster","lat":"40.1217166"},"STS":{"airportname":"Charles M. Schulz - Sonoma County Airport","stateName":"California","lon":"-122.8128804","state":"CA","areacode":["712"],"majorCity":"Santa Rosa","lat":"38.50897774"},"DFW":{"airportname":"Dallas/Fort Worth International Airport","stateName":"Texas","lon":"-97.0379971","state":"TX","areacode":["214","972","940","817","682","469"],"majorCity":"Dallas","lat":"32.89682787"},"PNS":{"airportname":"Pensacola International Airport","stateName":"Florida","lon":"-87.18744457","state":"FL","areacode":["850"],"majorCity":"Pensacola","lat":"30.47330551"},"SDF":{"airportname":"Louisville International Airport","stateName":"Kentucky","lon":"-85.73599979","state":"KY","areacode":["502","364","270"],"majorCity":"Louisville","lat":"38.17438893"},"FSD":{"airportname":"Sioux Falls Regional Airport","stateName":"South Dakota","lon":"-96.74191386","state":"SD","areacode":["605"],"majorCity":"Sioux Falls","lat":"43.58201399"},"MHT":{"airportname":"Manchester\u2013Boston Regional Airport","stateName":"New Hampshire","lon":"-71.43566653","state":"NH","areacode":["603"],"majorCity":"Manchester","lat":"42.93255564"},"JBR":{"airportname":"Jonesboro Municipal Airport","stateName":"Arkansas","lon":"-90.64639181","state":"AR","areacode":["870"],"majorCity":"Jonesboro","lat":"35.83168354"},"LFT":{"airportname":"Lafayette Regional Airport","stateName":"Louisiana","lon":"-91.98765546","state":"LA","areacode":["337"],"majorCity":"Lafayette","lat":"30.20528074"},"CMH":{"airportname":"Port Columbus International Airport","stateName":"Ohio","lon":"-82.89188862","state":"OH","areacode":["740","614"],"majorCity":"Columbus","lat":"39.99797221"},"OMA":{"airportname":"Omaha","stateName":"Nebraska","lon":"-95.89378908","state":"NE","areacode":["531","402"],"majorCity":"Omaha","lat":"41.30264729"},"MIA":{"airportname":"Miami International Airport","stateName":"Florida","lon":"-80.29055581","state":"FL","areacode":["786","305"],"majorCity":"Miami","lat":"25.79324976"},"LGB":{"airportname":"Long Beach Airport","stateName":"California","lon":"-118.1516111","state":"CA","areacode":["714","657"],"majorCity":"Long Beach","lat":"33.81772243"},"LGA":{"airportname":"New York, La Guardia Airport","stateName":"New York","lon":"-73.8726081","state":"NY","areacode":["646"],"majorCity":"New York","lat":"40.77724446"},"PWM":{"airportname":"Portland International Jetport","stateName":"Maine","lon":"-70.30928046","state":"ME","areacode":["207"],"majorCity":"Portland","lat":"43.64616104"},"GEG":{"airportname":"Spokane International Airport","stateName":"Washington","lon":"-117.5338335","state":"WA","areacode":["509"],"majorCity":"Spokane","lat":"47.61986107"},"IAD":{"airportname":"Washington, Dulles International Airport","stateName":"Virginia","lon":"-77.45581091","state":"VA","areacode":["202"],"majorCity":"Washington","lat":"38.94453328"},"SMF":{"airportname":"Sacramento International Airport","stateName":"California","lon":"-121.5907779","state":"CA","areacode":["916","530"],"majorCity":"Sacramento","lat":"38.69541675"},"SEA":{"airportname":"Seattle, Tacoma International Airport","stateName":"Washington","lon":"-122.3093055","state":"WA","areacode":["206","253","564","425","360"],"majorCity":"Seattle","lat":"47.44899999"},"HOU":{"airportname":"Houston, William B Hobby Airport","stateName":"Texas","lon":"-95.27888909","state":"TX","areacode":["832"],"majorCity":"Houston","lat":"29.64541923"},"TOL":{"airportname":"Toledo Express Airport","stateName":"Ohio","lon":"-83.80783349","state":"OH","areacode":["567","419"],"majorCity":"Toledo","lat":"41.58680555"},"IAH":{"airportname":"Houston, George Bush Intercontinental Airport","stateName":"Texas","lon":"-95.34144178","state":"TX","areacode":["936","832","713","281"],"majorCity":"Houston","lat":"29.98443335"},"RST":{"airportname":"Rochester International Airport","stateName":"Minnesota","lon":"-92.49900296","state":"MN","areacode":["507"],"majorCity":"Rochester","lat":"43.90722245"},"MAF":{"airportname":"Midland International Air and Space Port","stateName":"Texas","lon":"-102.2019137","state":"TX","areacode":["432"],"majorCity":"Midland","lat":"31.94252774"},"CVG":{"airportname":"Cincinnati/Northern Kentucky International Airport","stateName":"Kentucky","lon":"-84.66217205","state":"KY","areacode":["513","283"],"majorCity":"Hebron","lat":"39.04614173"},"AZO":{"airportname":"Kalamazoo-Battle Creek International Airport","stateName":"Michigan","lon":"-85.55205837","state":"MI","areacode":["269"],"majorCity":"Kalamazoo","lat":"42.23487519"},"RSW":{"airportname":"Southwest Florida International Airport","stateName":"Florida","lon":"-81.75516665","state":"FL","areacode":["239"],"majorCity":"Fort Myers","lat":"26.53616667"},"SUX":{"airportname":"Sioux Gateway Airport","stateName":"Iowa","lon":"-96.38436109","state":"IA","areacode":["712"],"majorCity":"Sioux City","lat":"42.40261115"},"ERI":{"airportname":"Erie International Airpor","stateName":"Pennsylvania","lon":"-80.17621681","state":"PA","areacode":["814"],"majorCity":"Erie","lat":"42.08202213"},"PGV":{"airportname":"Pitt-Greenville Airport","stateName":"North Carolina","lon":"-77.38531932","state":"NC","areacode":["252"],"majorCity":"Greenville","lat":"35.63523889"},"BTR":{"airportname":"Baton Rouge Metropolitan Airport","stateName":"Louisiana","lon":"-91.14963904","state":"LA","areacode":["225"],"majorCity":"Baton Rouge","lat":"30.53316671"},"TPA":{"airportname":"Tampa International Airport","stateName":"Florida","lon":"-82.53325","state":"FL","areacode":["813","727"],"majorCity":"Tampa","lat":"27.97547221"},"BTV":{"airportname":"Burlington International Airport","stateName":"Vermont","lon":"-73.15327764","state":"VT","areacode":["802"],"majorCity":"Burlington","lat":"44.47186131"},"FLL":{"airportname":"Fort Lauderdale-Hollywood International Airport","stateName":"Florida","lon":"-80.15275016","state":"FL","areacode":["954","754"],"majorCity":"Fort Lauderdale","lat":"26.07258339"},"SNA":{"airportname":"John Wayne Airport","stateName":"California","lon":"-117.8682223","state":"CA","areacode":["949"],"majorCity":"Santa Ana","lat":"33.6756666"},"ABI":{"airportname":"Abilene Regional Airport","stateName":"Texas","lon":"-99.68189701","state":"TX","areacode":["325"],"majorCity":"Abilene","lat":"32.4113192"},"BDL":{"airportname":"Bradley International Airport","stateName":"Connecticut","lon":"-72.68322229","state":"CT","areacode":["860","413","203"],"majorCity":"Hartford","lat":"41.93888906"},"GNV":{"airportname":"Gainesville Regional Airport","stateName":"Florida","lon":"-82.27177799","state":"FL","areacode":["352"],"majorCity":"Gainesville","lat":"29.69005555"},"ABQ":{"airportname":"Albuquerque International Airport","stateName":"New Mexico","lon":"-106.6091944","state":"NM","areacode":["505"],"majorCity":"Albuquerque","lat":"35.04022233"},"BUF":{"airportname":"Buffalo Niagara International Airport","stateName":"New York","lon":"-78.73216689","state":"NY","areacode":["716","585"],"majorCity":"Buffalo","lat":"42.94052515"},"ONT":{"airportname":"LA/Ontario International Airport","stateName":"California","lon":"-117.6011945","state":"CA","areacode":["951","909","760","442"],"majorCity":"Riverside","lat":"34.05600015"},"MRY":{"airportname":"Monterey Regional Airport","stateName":"California","lon":"-121.8429445","state":"CA","areacode":["831"],"majorCity":"Monterey","lat":"36.58699997"},"PHL":{"airportname":"Philadelphia International Airport","stateName":"Pennsylvania","lon":"-75.24113908","state":"PA","areacode":["215","267","856","681","610","609","484","304","302"],"majorCity":"Philadelphia","lat":"39.8719446"},"ABY":{"airportname":"Southwest Georgia Regional Airport","stateName":"Georgia","lon":"-84.19447213","state":"GA","areacode":["229"],"majorCity":"Albany","lat":"31.53551392"},"LYH":{"airportname":"Lynchburg Regional Airport","stateName":"Virginia","lon":"-79.20043051","state":"VA","areacode":["434"],"majorCity":"Lynchburg","lat":"37.32668616"},"SFO":{"airportname":"San Francisco International Airport","stateName":"California","lon":"-122.3748887","state":"CA","areacode":["650","415"],"majorCity":"San Francisco","lat":"37.61897218"},"MBS":{"airportname":"MBS International Airport","stateName":"Michigan","lon":"-84.07964721","state":"MI","areacode":["989"],"majorCity":"Saginaw","lat":"43.53291381"},"PHX":{"airportname":"Phoenix Sky Harbor International Airport","stateName":"Arizona","lon":"-112.0115836","state":"AZ","areacode":["928","623","602","520","480"],"majorCity":"Phoenix","lat":"33.43427785"},"RDU":{"airportname":"Raleigh-Durham International Airport","stateName":"North Carolina","lon":"-78.78747225","state":"NC","areacode":["919"],"majorCity":"Raleigh","lat":"35.87763883"},"SWF":{"airportname":"Stewart International Airport","stateName":"New York","lon":"-74.10483912","state":"NY","areacode":["845"],"majorCity":"Newburgh","lat":"41.5040946"},"DAB":{"airportname":"Daytona Beach International Airport","stateName":"Florida","lon":"-81.05805561","state":"FL","areacode":["386"],"majorCity":"Daytona Beach","lat":"29.17991649"},"COS":{"airportname":"Colorado Springs","stateName":"Colorado","lon":"-104.7002502","state":"CO","areacode":["719"],"majorCity":"Colorado Springs","lat":"38.80580574"},"MKE":{"airportname":"General Mitchell International Airport","stateName":"Wisconsin","lon":"-87.89658353","state":"WI","areacode":["414","262"],"majorCity":"Milwaukee","lat":"42.94722229"},"ISP":{"airportname":"Long Island MacArthur Airport","stateName":"New York","lon":"-73.10021102","state":"NY","areacode":["631"],"majorCity":"Ronkonkoma","lat":"40.79524174"},"COU":{"airportname":"Columbia Regional Airport","stateName":"Missouri","lon":"-92.21958339","state":"MO","areacode":["660"],"majorCity":"Columbia","lat":"38.81797224"},"MKG":{"airportname":"Muskegon County Airport","stateName":"Michigan","lon":"-86.23822197","state":"MI","areacode":["231"],"majorCity":"Muskegon","lat":"43.16948891"},"MSN":{"airportname":"Dane County Regional Airport","stateName":"Wisconsin","lon":"-89.33751404","state":"WI","areacode":["608"],"majorCity":"Madison","lat":"43.13985854"},"PIA":{"airportname":"General Wayne A. Downing Peoria International Airport","stateName":"Illinois","lon":"-89.69325811","state":"IL","areacode":["309"],"majorCity":"Peoria","lat":"40.66420276"},"MSP":{"airportname":"Minneapolis/St.Paul International Airport","stateName":"Minnesota","lon":"-93.21692213","state":"MN","areacode":["952","763","651","612"],"majorCity":"Minneapolis","lat":"44.88332491"},"TYR":{"airportname":"Tyler Pounds Regional Airport","stateName":"Texas","lon":"-95.40238604","state":"TX","areacode":["903"],"majorCity":"Tyler","lat":"32.35413887"},"MKL":{"airportname":"McKellar-Sipes Regional Airport","stateName":"Tennessee","lon":"-88.91561106","state":"TN","areacode":["731"],"majorCity":"Jackson","lat":"35.59988905"},"TYS":{"airportname":"McGhee Tyson Airport","stateName":"Tennessee","lon":"-83.99402797","state":"TN","areacode":["865"],"majorCity":"Knoxville","lat":"35.81097219"},"MCI":{"airportname":"Kansas City International Airport","stateName":"Kansas","lon":"-94.71390545","state":"KS","areacode":["913","816"],"majorCity":"Kansas City","lat":"39.29760553"},"MSY":{"airportname":"New Orleans International Airport","stateName":"Louisiana","lon":"-90.25802761","state":"LA","areacode":["985","504"],"majorCity":"New Orleans","lat":"29.99338891"},"SGF":{"airportname":"Springfield-Branson National Airport","stateName":"Missouri","lon":"-93.38862777","state":"MO","areacode":["417"],"majorCity":"Springfield","lat":"37.24566668"},"BNA":{"airportname":"Nashville International Airport","stateName":"Tennessee","lon":"-86.67818338","state":"TN","areacode":["931","615","364","270"],"majorCity":"Nashville","lat":"36.12447783"},"LIT":{"airportname":"Little Rock National Airport","stateName":"Arkansas","lon":"-92.22430542","state":"AR","areacode":["501"],"majorCity":"Little Rock","lat":"34.7294445"},"ALB":{"airportname":"Albany International Airport","stateName":"New York","lon":"-73.80169183","state":"NY","areacode":["518"],"majorCity":"Albany","lat":"42.74826676"},"LAN":{"airportname":"Capital Region International Airport","stateName":"Michigan","lon":"-84.58735853","state":"MI","areacode":["517"],"majorCity":"Lansing","lat":"42.77870011"},"MCO":{"airportname":"Orlando International Airport","stateName":"Florida","lon":"-81.30899459","state":"FL","areacode":["863","407","321"],"majorCity":"Orlando","lat":"28.4293915"},"ATL":{"airportname":"Atlanta Hartsfield International Airport","stateName":"Georgia","lon":"-84.42694455","state":"GA","areacode":["770","678","470","404"],"majorCity":"Atlanta","lat":"33.6404445"},"MCN":{"airportname":"Middle Georgia Regional Airport","stateName":"Georgia","lon":"-83.64921123","state":"GA","areacode":["478"],"majorCity":"Macon","lat":"32.69285023"},"PIT":{"airportname":"Pittsburgh International Airport","stateName":"Pennsylvania","lon":"-80.23287222","state":"PA","areacode":["878","724","412"],"majorCity":"Pittsburgh","lat":"40.49146682"},"ICT":{"airportname":"Wichita Dwight D. Eisenhower National Airport","stateName":"Kansas","lon":"-97.43305564","state":"KS","areacode":["620","316"],"majorCity":"Wichita","lat":"37.64994465"},"ITH":{"airportname":"Ithaca Tompkins Regional Airport","stateName":"New York","lon":"-76.45844445","state":"NY","areacode":["607"],"majorCity":"Ithaca","lat":"42.49102783"},"CHA":{"airportname":"Chattanooga Metropolitan Airport","stateName":"Tennessee","lon":"-85.20378873","state":"TN","areacode":["423"],"majorCity":"Chattanooga","lat":"35.03526963"},"DAY":{"airportname":"James M. Cox Dayton International Airport","stateName":"Ohio","lon":"-84.2193751","state":"OH","areacode":["937"],"majorCity":"Dayton","lat":"39.90237493"},"LAS":{"airportname":"Las Vegas McCarran International Airport","stateName":"Nevada","lon":"-115.1523332","state":"NV","areacode":["702"],"majorCity":"Las Vegas","lat":"36.0803612"},"LRD":{"airportname":"Laredo International Airport","stateName":"Texas","lon":"-99.4615446","state":"TX","areacode":["956"],"majorCity":"Laredo","lat":"27.54373882"},"LAX":{"airportname":"Los Angeles International Airport","stateName":"California","lon":"-118.408075","state":"CA","areacode":["213","818","747","626","562","424","323","310"],"majorCity":"Los Angeles","lat":"33.94253634"},"CPR":{"airportname":"Casper\u2013Natrona County International Airport","stateName":"Wyoming","lon":"-106.464403","state":"WY","areacode":["307"],"majorCity":"Casper","lat":"42.90797219"},"ELM":{"airportname":"Elmira/Corning Regional Airport","stateName":"New York","lon":"-76.89161092","state":"NY","areacode":["607"],"majorCity":"Elmira","lat":"42.15988901"},"ELP":{"airportname":"El Paso International Airport","stateName":"Texas","lon":"-106.3778056","state":"TX","areacode":["915","575"],"majorCity":"El Paso","lat":"31.80666681"},"BFL":{"airportname":"Meadows Field","stateName":"California","lon":"-119.0567695","state":"CA","areacode":["661"],"majorCity":"Bakersfield","lat":"35.43359745"},"GPT":{"airportname":"Gulfport\u2013Biloxi International Airport","stateName":"Mississippi","lon":"-89.07011122","state":"MS","areacode":["228"],"majorCity":"Gulfport","lat":"30.4072779"},"MLI":{"airportname":"Quad City International Airport","stateName":"Illinois","lon":"-90.50753877","state":"IL","areacode":["563"],"majorCity":"Moline","lat":"41.44852795"},"FNT":{"airportname":"Bishop International Airport","stateName":"Michigan","lon":"-83.74345556","state":"MI","areacode":["810"],"majorCity":"Flint","lat":"42.96550289"},"LBB":{"airportname":"Lubbock Preston Smith International Airport","stateName":"Texas","lon":"-101.8227777","state":"TX","areacode":["806"],"majorCity":"Lubbock","lat":"33.66363891"},"JFK":{"airportname":"New York, John F Kennedy International Airport","stateName":"New York","lon":"-73.77892479","state":"NY","areacode":["212","917","914","718","516","347"],"majorCity":"New York","lat":"40.63975006"},"CHS":{"airportname":"Charleston International Airport","stateName":"South Carolina","lon":"-80.04052788","state":"SC","areacode":["843"],"majorCity":"Charleston","lat":"32.89864741"},"FWA":{"airportname":"Fort Wayne International Airport","stateName":"Indiana","lon":"-85.1951471","state":"IN","areacode":["260"],"majorCity":"Fort Wayne","lat":"40.97846679"},"RFD":{"airportname":"Chicago Rockford International Airport","stateName":"Illinois","lon":"-89.09721091","state":"IL","areacode":["815","779"],"majorCity":"Rockford","lat":"42.1953639"},"RNO":{"airportname":"Reno-Tahoe International Airport","stateName":"Nevada","lon":"-119.768111","state":"NV","areacode":["775"],"majorCity":"Reno","lat":"39.49911118"},"BWI":{"airportname":"Baltimore\u2013Washington International Airport","stateName":"Maryland","lon":"-76.66833356","state":"MD","areacode":["227","240","667","443","410","301"],"majorCity":"Baltimore","lat":"39.17536117"},"EUG":{"airportname":"Eugene","stateName":"Oregon","lon":"-123.2186669","state":"OR","areacode":["541","458"],"majorCity":"Eugene","lat":"44.12324991"},"PBI":{"airportname":"Palm Beach International Airport","stateName":"Florida","lon":"-80.09559453","state":"FL","areacode":["772","561"],"majorCity":"Palm Beach","lat":"26.68316111"},"CYS":{"airportname":"Cheyenne Regional Airport","stateName":"Colorado","lon":"-104.811839","state":"CO","areacode":["970"],"majorCity":"Fort Collins","lat":"41.15572225"},"BOI":{"airportname":"Boise Airport","stateName":"Idaho","lon":"-116.222861","state":"ID","areacode":["208"],"majorCity":"Boise","lat":"43.56436104"},"FOE":{"airportname":"Forbes Field","stateName":"Kansas","lon":"-95.66361129","state":"KS","areacode":["785"],"majorCity":"Topeka","lat":"38.95094443"},"AUS":{"airportname":"Austin Bergstrom International Airport","stateName":"Texas","lon":"-97.66988888","state":"TX","areacode":["512"],"majorCity":"Austin","lat":"30.19452777"},"CID":{"airportname":"The Eastern Iowa Airport","stateName":"Iowa","lon":"-91.71080545","state":"IA","areacode":["319"],"majorCity":"Cedar Rapids","lat":"41.88469436"},"DSM":{"airportname":"Des Moines International Airport","stateName":"Iowa","lon":"-93.66260022","state":"IA","areacode":["515"],"majorCity":"Des Moines","lat":"41.53414171"},"SHV":{"airportname":"Shreveport Regional Airport","stateName":"Louisiana","lon":"-93.82559717","state":"LA","areacode":["318"],"majorCity":"Shreveport","lat":"32.4466278"},"MDW":{"airportname":"Chicago Midway Airport","stateName":"Illinois","lon":"-87.75242508","state":"IL","areacode":["847","630","331","224","219"],"majorCity":"Chicago","lat":"41.78598337"},"DCA":{"airportname":"Ronald Reagan Washington National Airport","stateName":"Virginia","lon":"-77.03772202","state":"VA","areacode":["703","571","540","202"],"majorCity":"Arlington","lat":"38.85208357"},"ROA":{"airportname":"Roanoke\u2013Blacksburg Regional Airport","stateName":"Virginia","lon":"-79.97542754","state":"VA","areacode":["276"],"majorCity":"Roanoke","lat":"37.32546944"},"CAE":{"airportname":"Columbia Metropolitan Airport","stateName":"South Carolina","lon":"-81.11953899","state":"SC","areacode":["803"],"majorCity":"Columbia","lat":"33.93883891"},"BOS":{"airportname":"Boston, Logan International Airport","stateName":"Massachusetts","lon":"-71.00518897","state":"MA","areacode":["978","857","781","774","617","508","351","339"],"majorCity":"Boston","lat":"42.36434743"},"BGM":{"airportname":"Greater Binghamton Airport","stateName":"New York","lon":"-75.97983867","state":"NY","areacode":["607"],"majorCity":"Binghamton","lat":"42.20868912"},"HSV":{"airportname":"Huntsville International Airport","stateName":"Alabama","lon":"-86.7750527","state":"AL","areacode":["256"],"majorCity":"Huntsville","lat":"34.63719461"},"CAK":{"airportname":"Akron\u2013Canton Airport","stateName":"Ohio","lon":"-81.44246668","state":"OH","areacode":["330","234"],"majorCity":"Akron","lat":"40.91631129"},"SYR":{"airportname":"Syracuse Hancock International Airport","stateName":"New York","lon":"-76.10631108","state":"NY","areacode":["315"],"majorCity":"Syracuse","lat":"43.11118607"},"MEM":{"airportname":"Memphis International Airport","stateName":"Tennessee","lon":"-89.97666657","state":"TN","areacode":["901","662"],"majorCity":"Memphis","lat":"35.04241671"},"GRB":{"airportname":"Green Bay","stateName":"Wisconsin","lon":"-88.12958881","state":"WI","areacode":["715","534"],"majorCity":"Green Bay","lat":"44.4850722"},"AVL":{"airportname":"Asheville Regional Airport","stateName":"North Carolina","lon":"-82.54180536","state":"NC","areacode":["828"],"majorCity":"Asheville","lat":"35.4361945"},"OAK":{"airportname":"Oakland International Airport","stateName":"California","lon":"-122.2207166","state":"CA","areacode":["925","510"],"majorCity":"Oakland","lat":"37.72129174"},"AVP":{"airportname":"Wilkes-Barre/Scranton International Airport","stateName":"Pennsylvania","lon":"-75.72340295","state":"PA","areacode":["570","272"],"majorCity":"Avoca","lat":"41.33847792"},"GRI":{"airportname":"Central Nebraska Regional Airport","stateName":"Nebraska","lon":"-98.30963865","state":"NE","areacode":["308"],"majorCity":"Grand Island","lat":"40.96754182"},"CRP":{"airportname":"Corpus Christi International Airport","stateName":"Texas","lon":"-97.50122219","state":"TX","areacode":["361"],"majorCity":"Corpus Christi","lat":"27.77036101"},"ORD":{"airportname":"Chicago, O'Hare International Airport","stateName":"Illinois","lon":"-87.9048416","state":"IL","areacode":["217","224","872","773","708","630","312"],"majorCity":"Chicago","lat":"41.97860286"},"DLH":{"airportname":"Duluth International Airport","stateName":"Minnesota","lon":"-92.19364733","state":"MN","areacode":["218"],"majorCity":"Duluth","lat":"46.84208885"},"GRK":{"airportname":"Killeen-Fort Hood Regional Airport","stateName":"Texas","lon":"-97.82892779","state":"TX","areacode":["254"],"majorCity":"Killeen","lat":"31.06723879"},"SAN":{"airportname":"San Diego International Airport","stateName":"California","lon":"-117.1896668","state":"CA","areacode":["858","619"],"majorCity":"San Diego","lat":"32.73355577"},"ORF":{"airportname":"Norfolk International Airport","stateName":"Virginia","lon":"-76.20122239","state":"VA","areacode":["757"],"majorCity":"Virginia Beach","lat":"36.89461112"},"EVV":{"airportname":"Evansville Regional Airport","stateName":"Indiana","lon":"-87.53086388","state":"IN","areacode":["812"],"majorCity":"Evansville","lat":"38.03841669"},"BHM":{"airportname":"Birmingham International Airport","stateName":"Alabama","lon":"-86.75354987","state":"AL","areacode":["205"],"majorCity":"Birmingham","lat":"33.56294442"},"DTW":{"airportname":"Detroit Metropolitan Airport","stateName":"Michigan","lon":"-83.35339174","state":"MI","areacode":["734","313","248"],"majorCity":"Detroit","lat":"42.21243046"},"GRR":{"airportname":"Gerald R. Ford International Airport","stateName":"Michigan","lon":"-85.52280575","state":"MI","areacode":["616"],"majorCity":"Grand Rapids","lat":"42.88083326"},"HTS":{"airportname":"Tri-State Airport","stateName":"West Virginia","lon":"-82.5580278","state":"WV","areacode":["606"],"majorCity":"Huntington","lat":"38.36666677"},"BPT":{"airportname":"Jack Brooks Regional Airport","stateName":"Texas","lon":"-94.02069435","state":"TX","areacode":["409"],"majorCity":"Beaumont","lat":"29.95083332"},"SAT":{"airportname":"San Antonio International Airport","stateName":"Texas","lon":"-98.4697777","state":"TX","areacode":["830"],"majorCity":"San Antonio","lat":"29.5336945"},"SAV":{"airportname":"Savannah/Hilton Head International Airport","stateName":"Georgia","lon":"-81.20213896","state":"GA","areacode":["912"],"majorCity":"Savannah","lat":"32.1275834"},"SJC":{"airportname":"Norman Y. Mineta San Jose International Airport","stateName":"California","lon":"-121.9290085","state":"CA","areacode":["408","669"],"majorCity":"San Jose","lat":"37.36262508"},"TTN":{"airportname":"Trenton-Mercer Airport","stateName":"New Jersey","lon":"-74.81346935","state":"NJ","areacode":["609"],"majorCity":"Trenton","lat":"40.27669162"},"SBA":{"airportname":"Santa Barbara Municipal Airport","stateName":"California","lon":"-119.8403724","state":"CA","areacode":["805"],"majorCity":"Santa Barbara","lat":"34.42621104"},"SRQ":{"airportname":"Sarasota-Bradenton International Airport","stateName":"Florida","lon":"-82.55438894","state":"FL","areacode":["941"],"majorCity":"Sarasota","lat":"27.39545256"},"SBN":{"airportname":"South Bend International Airport","stateName":"Indiana","lon":"-86.31725013","state":"IN","areacode":["574"],"majorCity":"South Bend","lat":"41.70866132"},"EWR":{"airportname":"Newark International Airport","stateName":"New Jersey","lon":"-74.16866094","state":"NJ","areacode":["973","908","862","848","732","201"],"majorCity":"Newark","lat":"40.69249738"},"MOB":{"airportname":"Mobile Regional Airport","stateName":"Alabama","lon":"-88.24283347","state":"AL","areacode":["251"],"majorCity":"Mobile","lat":"30.69141671"},"GSO":{"airportname":"Piedmont Triad International Airport","stateName":"North Carolina","lon":"-79.93729726","state":"NC","areacode":["336","276"],"majorCity":"Greensboro","lat":"36.09774727"},"BIL":{"airportname":"Billings Logan International Airport","stateName":"Montana","lon":"-108.5428888","state":"MT","areacode":["406"],"majorCity":"Billings","lat":"45.80766678"},"GSP":{"airportname":"Greenville-Spartanburg International Airport","stateName":"South Carolina","lon":"-82.21885845","state":"SC","areacode":["864"],"majorCity":"Greenville","lat":"34.89566669"},"PDX":{"airportname":"Portland International Airport","stateName":"Oregon","lon":"-122.5974999","state":"OR","areacode":["971","503"],"majorCity":"Portland","lat":"45.58872242"},"OKC":{"airportname":"Will Rogers World Airport","stateName":"Oklahoma","lon":"-97.60073349","state":"OK","areacode":["580","405"],"majorCity":"Oklahoma City","lat":"35.39308906"},"TUL":{"airportname":"Tulsa International Airport","stateName":"Oklahoma","lon":"-95.88811129","state":"OK","areacode":["918","539"],"majorCity":"Tulsa","lat":"36.19838912"},"DEN":{"airportname":"Denver International Airport","stateName":"Colorado","lon":"-104.6731777","state":"CO","areacode":["720","303"],"majorCity":"Denver","lat":"39.86165565"},"AGS":{"airportname":"Augusta Regional Airport","stateName":"Georgia","lon":"-81.9645001","state":"GA","areacode":["762","706"],"majorCity":"Augusta","lat":"33.36994439"},"RIC":{"airportname":"Richmond International Airport","stateName":"Virginia","lon":"-77.31966645","state":"VA","areacode":["804"],"majorCity":"Richmond","lat":"37.50516672"},"MGM":{"airportname":"Montgomery Regional Airport","stateName":"Alabama","lon":"-86.39397517","state":"AL","areacode":["334"],"majorCity":"Montgomery","lat":"32.30064455"},"FAR":{"airportname":"Hector International Airport","stateName":"North Dakota","lon":"-96.81576401","state":"ND","areacode":["701"],"majorCity":"Fargo","lat":"46.92065008"},"JAN":{"airportname":"Jackson-Medgar Wiley Evers International Airport","stateName":"Mississippi","lon":"-90.07589445","state":"MS","areacode":["769","601"],"majorCity":"Jackson","lat":"32.31118329"},"FAT":{"airportname":"Fresno Yosemite International Airport","stateName":"California","lon":"-119.7181387","state":"CA","areacode":["559","209"],"majorCity":"Fresno","lat":"36.77619461"},"CLE":{"airportname":"Cleveland Hopkins International Airport","stateName":"Ohio","lon":"-81.84939712","state":"OH","areacode":["440","216"],"majorCity":"Cleveland","lat":"41.41089454"},"LEX":{"airportname":"Blue Grass Airport","stateName":"Kentucky","lon":"-84.60538879","state":"KY","areacode":["859"],"majorCity":"Lexington","lat":"38.03697232"},"FAY":{"airportname":"Fayetteville Regional Airport","stateName":"North Carolina","lon":"-78.88027221","state":"NC","areacode":["910"],"majorCity":"Fayetteville","lat":"34.9912167"},"PVD":{"airportname":"Providence - T.F. Green Airport","stateName":"Rhode Island","lon":"-71.42819434","state":"RI","areacode":["401"],"majorCity":"Providence","lat":"41.7240002"}}